VIASAT-2
1 42740U 17029A   26119.17475306 -.00000268  00000+0  00000+0 0  9993
2 42740   0.0176 269.6739 0000373 101.4918 198.9929  1.00274467 32713
